[{"OBJECT_NAME":"DIWATA-2B","OBJECT_ID":"2018-084H","EPOCH":"2026-03-09T23:44:16.821312","MEAN_MOTION":14.99967379,"ECCENTRICITY":0.00117782,"INCLINATION":98.1039,"RA_OF_ASC_NODE":261.0381,"ARG_OF_PERICENTER":125.8755,"MEAN_ANOMALY":234.3563,"EPHEMERIS_TYPE":0,"CLASSIFICATION_TYPE":"U","NORAD_CAT_ID":43678,"ELEMENT_SET_NO":999,"REV_AT_EPOCH":40134,"BSTAR":0.00041230334,"MEAN_MOTION_DOT":5.066e-5,"MEAN_MOTION_DDOT":0},{"OBJECT_NAME":"STARLINK-36171","OBJECT_ID":"2025-293AA","EPOCH":"2026-03-09T12:04:34.768416","MEAN_MOTION":14.98344728,"ECCENTRICITY":0.00034225,"INCLINATION":70.0011,"RA_OF_ASC_NODE":94.7747,"ARG_OF_PERICENTER":272.5392,"MEAN_ANOMALY":87.5375,"EPHEMERIS_TYPE":0,"CLASSIFICATION_TYPE":"U","NORAD_CAT_ID":67027,"ELEMENT_SET_NO":999,"REV_AT_EPOCH":1486,"BSTAR":0.00045361424,"MEAN_MOTION_DOT":5.326e-5,"MEAN_MOTION_DDOT":0}]
